[{"OBJECT_NAME":"STARLINK-5655","OBJECT_ID":"2023-013F","EPOCH":"2026-03-09T22:00:01.999584","MEAN_MOTION":15.1070309,"ECCENTRICITY":0.00020485,"INCLINATION":43.0004,"RA_OF_ASC_NODE":286.0516,"ARG_OF_PERICENTER":263.9132,"MEAN_ANOMALY":71.8699,"EPHEMERIS_TYPE":0,"CLASSIFICATION_TYPE":"U","NORAD_CAT_ID":55336,"ELEMENT_SET_NO":999,"REV_AT_EPOCH":567,"BSTAR":0.0029195966,"MEAN_MOTION_DOT":0.00049331,"MEAN_MOTION_DDOT":0},{"OBJECT_NAME":"COSMOS 374 DEB","OBJECT_ID":"1970-089K","EPOCH":"2026-03-09T10:49:05.969856","MEAN_MOTION":13.67888998,"ECCENTRICITY":0.06745217,"INCLINATION":62.9248,"RA_OF_ASC_NODE":184.2517,"ARG_OF_PERICENTER":114.5683,"MEAN_ANOMALY":252.716,"EPHEMERIS_TYPE":0,"CLASSIFICATION_TYPE":"U","NORAD_CAT_ID":4667,"ELEMENT_SET_NO":999,"REV_AT_EPOCH":67502,"BSTAR":0.0012077936,"MEAN_MOTION_DOT":5.178e-5,"MEAN_MOTION_DDOT":0}]
